{
  "norad_id": 49284,
  "name": "ONEWEB-0358",
  "history": [
    {
      "epoch": "2026-03-28T19:15:33.223968",
      "apogee_km": 1182.969920830119,
      "perigee_km": 1180.5799302739752,
      "latitude_deg": 45.5799145138359,
      "longitude_deg": -94.56308448011987,
      "semi_major_axis_km": 7559.911925552047,
      "eccentricity": 0.00015807,
      "inclination_deg": 87.9149,
      "raan_deg": 290.4876,
      "arg_perigee_deg": 88.6738,
      "mean_anomaly_deg": 271.4576,
      "mean_motion_rev_day": 13.20771406
    },
    {
      "epoch": "2026-03-29T02:31:54.760224",
      "apogee_km": 1182.9520308782849,
      "perigee_km": 1180.5963625493887,
      "latitude_deg": 77.26472066821374,
      "longitude_deg": -65.47248863987625,
      "semi_major_axis_km": 7559.911196713837,
      "eccentricity": 0.0001558,
      "inclination_deg": 87.9149,
      "raan_deg": 290.4272,
      "arg_perigee_deg": 88.4059,
      "mean_anomaly_deg": 271.7253,
      "mean_motion_rev_day": 13.20771597
    }
  ]
}